2024-092F               
1 59778U 24092F   26068.91303411  .00025723  00000+0  79143-3 0  9992
2 59778  97.6418 198.4543 0008646 142.6506 217.5339 15.33614440100535
STARLINK-32885          
1 62958U 25029L   26068.71543922  .00016195  00000+0  55770-3 0  9991
2 62958  53.1598 230.0554 0000887  83.3341 276.7760 15.30201455 61353
